[
  {
    "OBJECT_NAME": "STARLINK-37162",
    "OBJECT_ID": "2026-055A",
    "EPOCH": "2026-04-17T14:03:28.929600",
    "MEAN_MOTION": 15.80923536,
    "ECCENTRICITY": 0.00014452,
    "INCLINATION": 53.1573,
    "RA_OF_ASC_NODE": 142.3644,
    "ARG_OF_PERICENTER": 138.7061,
    "MEAN_ANOMALY": 221.4071,
    "EPHEMERIS_TYPE": 0,
    "CLASSIFICATION_TYPE": "U",
    "NORAD_CAT_ID": 68262,
    "ELEMENT_SET_NO": 999,
    "REV_AT_EPOCH": 583,
    "BSTAR": 0.00069805622,
    "MEAN_MOTION_DOT": 0.0013965,
    "MEAN_MOTION_DDOT": 0
  },
  {
    "OBJECT_NAME": "STARLINK-37156",
    "OBJECT_ID": "2026-055B",
    "EPOCH": "2026-04-17T14:02:24.221184",
    "MEAN_MOTION": 15.80960467,
    "ECCENTRICITY": 0.0001063,
    "INCLINATION": 53.1569,
    "RA_OF_ASC_NODE": 142.3594,
    "ARG_OF_PERICENTER": 103.9789,
    "MEAN_ANOMALY": 256.1352,
    "EPHEMERIS_TYPE": 0,
    "CLASSIFICATION_TYPE": "U",
    "NORAD_CAT_ID": 68263,
    "ELEMENT_SET_NO": 999,
    "REV_AT_EPOCH": 583,
    "BSTAR": 0.0012162031,
    "MEAN_MOTION_DOT": 0.00247338,
    "MEAN_MOTION_DDOT": 0
  },
  {
    "OBJECT_NAME": "STARLINK-37163",
    "OBJECT_ID": "2026-055C",
    "EPOCH": "2026-04-17T14:00:14.666112",
    "MEAN_MOTION": 15.80915598,
    "ECCENTRICITY": 0.00010261,
    "INCLINATION": 53.1568,
    "RA_OF_ASC_NODE": 142.3486,
    "ARG_OF_PERICENTER": 88.6337,
    "MEAN_ANOMALY": 271.4803,
    "EPHEMERIS_TYPE": 0,
    "CLASSIFICATION_TYPE": "U",
    "NORAD_CAT_ID": 68264,
    "ELEMENT_SET_NO": 999,
    "REV_AT_EPOCH": 583,
    "BSTAR": 0.00066068006,
    "MEAN_MOTION_DOT": 0.00131967,
    "MEAN_MOTION_DDOT": 0
  },
  {
    "OBJECT_NAME": "STARLINK-37133",
    "OBJECT_ID": "2026-055D",
    "EPOCH": "2026-04-17T14:01:19.291584",
    "MEAN_MOTION": 15.80967394,
    "ECCENTRICITY": 8.681e-05,
    "INCLINATION": 53.1567,
    "RA_OF_ASC_NODE": 142.3548,
    "ARG_OF_PERICENTER": 79.0897,
    "MEAN_ANOMALY": 281.0223,
    "EPHEMERIS_TYPE": 0,
    "CLASSIFICATION_TYPE": "U",
    "NORAD_CAT_ID": 68265,
    "ELEMENT_SET_NO": 999,
    "REV_AT_EPOCH": 583,
    "BSTAR": 0.0010384066,
    "MEAN_MOTION_DOT": 0.00210229,
    "MEAN_MOTION_DDOT": 0
  },
  {
    "OBJECT_NAME": "STARLINK-37042",
    "OBJECT_ID": "2026-055E",
    "EPOCH": "2026-04-17T13:59:09.736512",
    "MEAN_MOTION": 15.80966818,
    "ECCENTRICITY": 0.00011928,
    "INCLINATION": 53.1558,
    "RA_OF_ASC_NODE": 142.3436,
    "ARG_OF_PERICENTER": 31.3115,
    "MEAN_ANOMALY": 328.7978,
    "EPHEMERIS_TYPE": 0,
    "CLASSIFICATION_TYPE": "U",
    "NORAD_CAT_ID": 68266,
    "ELEMENT_SET_NO": 999,
    "REV_AT_EPOCH": 583,
    "BSTAR": 0.0011112043,
    "MEAN_MOTION_DOT": 0.0022541,
    "MEAN_MOTION_DDOT": 0
  },
  {
    "OBJECT_NAME": "STARLINK-37103",
    "OBJECT_ID": "2026-055F",
    "EPOCH": "2026-04-17T09:24:58.328064",
    "MEAN_MOTION": 15.80981839,
    "ECCENTRICITY": 0.00021953,
    "INCLINATION": 53.1562,
    "RA_OF_ASC_NODE": 143.289,
    "ARG_OF_PERICENTER": 94.3808,
    "MEAN_ANOMALY": 265.7466,
    "EPHEMERIS_TYPE": 0,
    "CLASSIFICATION_TYPE": "U",
    "NORAD_CAT_ID": 68267,
    "ELEMENT_SET_NO": 999,
    "REV_AT_EPOCH": 580,
    "BSTAR": 0.0013168005,
    "MEAN_MOTION_DOT": 0.00268797,
    "MEAN_MOTION_DDOT": 0
  },
  {
    "OBJECT_NAME": "STARLINK-36999",
    "OBJECT_ID": "2026-055G",
    "EPOCH": "2026-04-17T09:23:53.501280",
    "MEAN_MOTION": 15.80971117,
    "ECCENTRICITY": 7.541e-05,
    "INCLINATION": 53.1569,
    "RA_OF_ASC_NODE": 143.2842,
    "ARG_OF_PERICENTER": 166.9754,
    "MEAN_ANOMALY": 193.1288,
    "EPHEMERIS_TYPE": 0,
    "CLASSIFICATION_TYPE": "U",
    "NORAD_CAT_ID": 68268,
    "ELEMENT_SET_NO": 999,
    "REV_AT_EPOCH": 580,
    "BSTAR": 0.0010389541,
    "MEAN_MOTION_DOT": 0.00210381,
    "MEAN_MOTION_DDOT": 0
  },
  {
    "OBJECT_NAME": "STARLINK-36962",
    "OBJECT_ID": "2026-055H",
    "EPOCH": "2026-04-17T12:24:53.491392",
    "MEAN_MOTION": 15.8098393,
    "ECCENTRICITY": 0.0001488,
    "INCLINATION": 53.1565,
    "RA_OF_ASC_NODE": 142.6461,
    "ARG_OF_PERICENTER": 35.4072,
    "MEAN_ANOMALY": 324.7049,
    "EPHEMERIS_TYPE": 0,
    "CLASSIFICATION_TYPE": "U",
    "NORAD_CAT_ID": 68269,
    "ELEMENT_SET_NO": 999,
    "REV_AT_EPOCH": 582,
    "BSTAR": 0.0016659075,
    "MEAN_MOTION_DOT": 0.00343255,
    "MEAN_MOTION_DDOT": 0
  },
  {
    "OBJECT_NAME": "STARLINK-37028",
    "OBJECT_ID": "2026-055J",
    "EPOCH": "2026-04-17T13:53:45.460032",
    "MEAN_MOTION": 15.80947868,
    "ECCENTRICITY": 0.0001414,
    "INCLINATION": 53.1569,
    "RA_OF_ASC_NODE": 142.3177,
    "ARG_OF_PERICENTER": 132.1964,
    "MEAN_ANOMALY": 227.9179,
    "EPHEMERIS_TYPE": 0,
    "CLASSIFICATION_TYPE": "U",
    "NORAD_CAT_ID": 68270,
    "ELEMENT_SET_NO": 999,
    "REV_AT_EPOCH": 583,
    "BSTAR": 0.0010260508,
    "MEAN_MOTION_DOT": 0.00207464,
    "MEAN_MOTION_DDOT": 0
  },
  {
    "OBJECT_NAME": "STARLINK-37029",
    "OBJECT_ID": "2026-055K",
    "EPOCH": "2026-04-17T13:54:51.152544",
    "MEAN_MOTION": 15.80910177,
    "ECCENTRICITY": 0.00013706,
    "INCLINATION": 53.1568,
    "RA_OF_ASC_NODE": 142.3228,
    "ARG_OF_PERICENTER": 49.2933,
    "MEAN_ANOMALY": 310.8209,
    "EPHEMERIS_TYPE": 0,
    "CLASSIFICATION_TYPE": "U",
    "NORAD_CAT_ID": 68271,
    "ELEMENT_SET_NO": 999,
    "REV_AT_EPOCH": 583,
    "BSTAR": 0.00077019803,
    "MEAN_MOTION_DOT": 0.00154324,
    "MEAN_MOTION_DDOT": 0
  },
  {
    "OBJECT_NAME": "STARLINK-36974",
    "OBJECT_ID": "2026-055L",
    "EPOCH": "2026-04-17T22:00:01.999584",
    "MEAN_MOTION": 15.67478683,
    "ECCENTRICITY": 8.789e-05,
    "INCLINATION": 53.159,
    "RA_OF_ASC_NODE": 140.7749,
    "ARG_OF_PERICENTER": 84.3998,
    "MEAN_ANOMALY": 326.0456,
    "EPHEMERIS_TYPE": 0,
    "CLASSIFICATION_TYPE": "U",
    "NORAD_CAT_ID": 68272,
    "ELEMENT_SET_NO": 999,
    "REV_AT_EPOCH": 593,
    "BSTAR": -0.019489378,
    "MEAN_MOTION_DOT": -0.01909438,
    "MEAN_MOTION_DDOT": 0
  },
  {
    "OBJECT_NAME": "STARLINK-37019",
    "OBJECT_ID": "2026-055M",
    "EPOCH": "2026-04-17T13:51:36.019872",
    "MEAN_MOTION": 15.80902839,
    "ECCENTRICITY": 9.299e-05,
    "INCLINATION": 53.1568,
    "RA_OF_ASC_NODE": 142.3085,
    "ARG_OF_PERICENTER": 70.7597,
    "MEAN_ANOMALY": 289.3527,
    "EPHEMERIS_TYPE": 0,
    "CLASSIFICATION_TYPE": "U",
    "NORAD_CAT_ID": 68273,
    "ELEMENT_SET_NO": 999,
    "REV_AT_EPOCH": 583,
    "BSTAR": 0.00074121501,
    "MEAN_MOTION_DOT": 0.00148335,
    "MEAN_MOTION_DDOT": 0
  },
  {
    "OBJECT_NAME": "STARLINK-37129",
    "OBJECT_ID": "2026-055N",
    "EPOCH": "2026-04-17T09:17:25.027008",
    "MEAN_MOTION": 15.80907846,
    "ECCENTRICITY": 0.00012596,
    "INCLINATION": 53.1567,
    "RA_OF_ASC_NODE": 143.2532,
    "ARG_OF_PERICENTER": 49.9407,
    "MEAN_ANOMALY": 310.1726,
    "EPHEMERIS_TYPE": 0,
    "CLASSIFICATION_TYPE": "U",
    "NORAD_CAT_ID": 68274,
    "ELEMENT_SET_NO": 999,
    "REV_AT_EPOCH": 580,
    "BSTAR": 0.00077029511,
    "MEAN_MOTION_DOT": 0.00154327,
    "MEAN_MOTION_DDOT": 0
  },
  {
    "OBJECT_NAME": "STARLINK-37123",
    "OBJECT_ID": "2026-055P",
    "EPOCH": "2026-04-17T13:49:26.299776",
    "MEAN_MOTION": 15.80940579,
    "ECCENTRICITY": 9.057e-05,
    "INCLINATION": 53.1566,
    "RA_OF_ASC_NODE": 142.2968,
    "ARG_OF_PERICENTER": 113.1354,
    "MEAN_ANOMALY": 246.9764,
    "EPHEMERIS_TYPE": 0,
    "CLASSIFICATION_TYPE": "U",
    "NORAD_CAT_ID": 68275,
    "ELEMENT_SET_NO": 999,
    "REV_AT_EPOCH": 583,
    "BSTAR": 0.0011699982,
    "MEAN_MOTION_DOT": 0.00237421,
    "MEAN_MOTION_DDOT": 0
  }
]