{"generatedAt":"2026-04-18T07:18:11.928163Z","satellites":[{"name":"STARLINK-37162","tle1":"1 68262U 26055A   26107.58575150  .00139650  00000+0  69806-3 0  9999","tle2":"2 68262  53.1573 142.3644 0001445 138.7061 221.4071 15.80923536  5839"},{"name":"STARLINK-37156","tle1":"1 68263U 26055B   26107.58500256  .00247338  00000+0  12162-2 0  9990","tle2":"2 68263  53.1569 142.3594 0001063 103.9789 256.1352 15.80960467  5837"},{"name":"STARLINK-37163","tle1":"1 68264U 26055C   26107.58350308  .00131967  00000+0  66068-3 0  9997","tle2":"2 68264  53.1568 142.3486 0001026  88.6337 271.4803 15.80915598  5830"},{"name":"STARLINK-37133","tle1":"1 68265U 26055D   26107.58425106  .00210229  00000+0  10384-2 0  9995","tle2":"2 68265  53.1567 142.3548 0000868  79.0897 281.0223 15.80967394  5831"},{"name":"STARLINK-37042","tle1":"1 68266U 26055E   26107.58275158  .00225410  00000+0  11112-2 0  9994","tle2":"2 68266  53.1558 142.3436 0001192  31.3115 328.7978 15.80966818  5839"},{"name":"STARLINK-37103","tle1":"1 68267U 26055F   26107.39234176  .00268797  00000+0  13168-2 0  9997","tle2":"2 68267  53.1562 143.2890 0002195  94.3808 265.7466 15.80981839  5800"},{"name":"STARLINK-36999","tle1":"1 68268U 26055G   26107.39159145  .00210381  00000+0  10390-2 0  9990","tle2":"2 68268  53.1569 143.2842 0000754 166.9754 193.1288 15.80971117  5804"},{"name":"STARLINK-36962","tle1":"1 68269U 26055H   26107.51728578  .00343255  00000+0  16659-2 0  9998","tle2":"2 68269  53.1565 142.6461 0001488  35.4072 324.7049 15.80983930  5824"},{"name":"STARLINK-37028","tle1":"1 68270U 26055J   26107.57899838  .00207464  00000+0  10261-2 0  9998","tle2":"2 68270  53.1569 142.3177 0001414 132.1964 227.9179 15.80947868  5834"},{"name":"STARLINK-37029","tle1":"1 68271U 26055K   26107.57975871  .00154324  00000+0  77020-3 0  9994","tle2":"2 68271  53.1568 142.3228 0001370  49.2933 310.8209 15.80910177  5835"},{"name":"STARLINK-36974","tle1":"1 68272U 26055L   26107.91668981 -.01909438  00000+0 -19489-1 0  9994","tle2":"2 68272  53.1590 140.7749 0000878  84.3998 326.0456 15.67478683  5934"},{"name":"STARLINK-37019","tle1":"1 68273U 26055M   26107.57750023  .00148335  00000+0  74122-3 0  9991","tle2":"2 68273  53.1568 142.3085 0000929  70.7597 289.3527 15.80902839  5831"},{"name":"STARLINK-37129","tle1":"1 68274U 26055N   26107.38709522  .00154327  00000+0  77030-3 0  9998","tle2":"2 68274  53.1567 143.2532 0001259  49.9407 310.1726 15.80907846  5807"},{"name":"STARLINK-37123","tle1":"1 68275U 26055P   26107.57599884  .00237421  00000+0  11700-2 0  9996","tle2":"2 68275  53.1566 142.2968 0000905 113.1354 246.9764 15.80940579  5832"}]}